NORAD_CAT_ID,OBJECT_NAME,OBJECT_TYPE,EPOCH,MEAN_MOTION,ECCENTRICITY,INCLINATION,RA_OF_ASC_NODE,ARG_OF_PERICENTER,MEAN_ANOMALY,BSTAR,MEAN_MOTION_DOT,MEAN_MOTION_DDOT,TLE_LINE0,TLE_LINE1,TLE_LINE2,SEMIMAJOR_AXIS,PERIOD,APOGEE,PERIGEE,DECAYED
54075.0,STARLINK-5212,PAYLOAD,2023-02-19 23:50:57,15.0885838,0.0001279,53.2178,298.709,88.177,271.9368,0.00052913,8.147e-05,0.0,0 STARLINK-5212,1 54075U 22136AA  23050.99372395  .00008147  00000-0  52913-3 0  9995,2 54075  53.2178 298.7090 0001279  88.1770 271.9368 15.08858380 19264,6917.824,95.436,540.574,538.804,0.0
54075.0,STARLINK-5212,PAYLOAD,2023-02-20 09:23:16,15.0885118,0.0001545,53.2169,296.9245,88.1855,271.9314,0.00054143,8.342e-05,0.0,0 STARLINK-5212,1 54075U 22136AA  23051.39116452  .00008342  00000-0  54143-3 0  9994,2 54075  53.2169 296.9245 0001545  88.1855 271.9314 15.08851180 19325,6917.846,95.437,540.78,538.642,0.0
54075.0,STARLINK-5212,PAYLOAD,2023-02-20 23:41:44,15.08845721,0.0001348,53.2167,294.2495,94.299,265.8156,7.5856e-05,9.2e-06,0.0,0 STARLINK-5212,1 54075U 22136AA  23051.98732431  .00000920  00000-0  75856-4 0  9999,2 54075  53.2167 294.2495 0001348  94.2990 265.8156 15.08845721 19410,6917.863,95.437,540.66,538.795,0.0
54075.0,STARLINK-5212,PAYLOAD,2023-02-21 09:14:03,15.08853308,0.0001228,53.2165,292.4623,80.0253,280.0877,0.00022844,3.351e-05,0.0,0 STARLINK-5212,1 54075U 22136AA  23052.38476036  .00003351  00000-0  22844-3 0  9999,2 54075  53.2165 292.4623 0001228  80.0253 280.0877 15.08853308 18994,6917.84,95.437,540.554,538.855,0.0
54075.0,STARLINK-5212,PAYLOAD,2023-02-21 21:57:07,15.08879287,0.0001151,53.215,290.0846,73.514,286.5978,0.00066566,0.00010333,0.0,0 STARLINK-5212,1 54075U 22136AA  23052.91466482  .00010333  00000-0  66566-3 0  9999,2 54075  53.2150 290.0846 0001151  73.5140 286.5978 15.08879287 19073,6917.76,95.435,540.422,538.829,0.0
54075.0,STARLINK-5212,PAYLOAD,2023-02-22 01:07:53,15.08890221,0.0001281,53.2152,289.4891,77.3836,282.7299,0.001143,0.00017975,0.0,0 STARLINK-5212,1 54075U 22136AA  23053.04714203  .00017975  00000-0  11430-2 0  9999,2 54075  53.2152 289.4891 0001281  77.3836 282.7299 15.08890221 19575,6917.727,95.434,540.478,538.706,0.0
54075.0,STARLINK-5212,PAYLOAD,2023-02-22 10:40:12,15.08838455,9.69e-05,53.2153,287.7067,94.7703,265.34,-0.00085744,-0.00013907,0.0,0 STARLINK-5212,1 54075U 22136AA  23053.44458735 -.00013907  00000-0 -85744-3 0  9991,2 54075  53.2153 287.7067 0000969  94.7703 265.3400 15.08838455 19639,6917.885,95.438,540.42,539.08,0.0
54075.0,STARLINK-5212,PAYLOAD,2023-02-22 12:15:36,15.08819593,0.0001032,53.2152,287.4088,48.7146,311.3935,-0.00094619,-0.00015306,0.0,0 STARLINK-5212,1 54075U 22136AA  23053.51083564 -.00015306  00000-0 -94619-3 0  9999,2 54075  53.2152 287.4088 0001032  48.7146 311.3935 15.08819593 19165,6917.943,95.439,540.522,539.094,0.0
54075.0,STARLINK-5212,PAYLOAD,2023-02-22 17:01:45,15.08812877,0.0001258,53.2147,286.5162,99.4036,260.7099,-0.0012497,-0.00020107,0.0,0 STARLINK-5212,1 54075U 22136AA  23053.70955464 -.00020107  00000-0 -12497-2 0  9995,2 54075  53.2147 286.5162 0001258  99.4036 260.7099 15.08812877 19675,6917.963,95.439,540.699,538.958,0.0
54075.0,STARLINK-5212,PAYLOAD,2023-02-22 21:47:55,15.08814542,0.0001261,53.2147,285.6236,95.6705,264.4431,-0.00055971,-9.178e-05,0.0,0 STARLINK-5212,1 54075U 22136AA  23053.90827937 -.00009178  00000-0 -55971-3 0  9990,2 54075  53.2147 285.6236 0001261  95.6705 264.4431 15.08814542 19225,6917.958,95.439,540.696,538.951,0.0
54075.0,STARLINK-5212,PAYLOAD,2023-02-23 00:58:41,15.08815911,0.000125,53.2146,285.0291,95.5159,264.5976,-8.835e-06,-4.28e-06,0.0,0 STARLINK-5212,1 54075U 22136AA  23054.04076286 -.00000428  00000-0 -88350-5 0  9997,2 54075  53.2146 285.0291 0001250  95.5159 264.5976 15.08815911 19720,6917.954,95.439,540.684,538.954,0.0
54075.0,STARLINK-5212,PAYLOAD,2023-02-23 12:06:24,15.08822731,0.0001204,53.2147,282.9473,100.3417,259.7711,0.0016187,0.00025555,0.0,0 STARLINK-5212,1 54075U 22136AA  23054.50445520  .00025555  00000-0  16187-2 0  9991,2 54075  53.2147 282.9473 0001204 100.3417 259.7711 15.08822731 19316,6917.933,95.439,540.631,538.965,0.0
54075.0,STARLINK-5212,PAYLOAD,2023-02-23 21:38:43,15.08837769,0.0001218,53.2148,281.163,99.9036,260.2094,0.0014554,0.00022949,0.0,0 STARLINK-5212,1 54075U 22136AA  23054.90189791  .00022949  00000-0  14554-2 0  9990,2 54075  53.2148 281.1630 0001218  99.9036 260.2094 15.08837769 19372,6917.887,95.438,540.595,538.91,0.0
54075.0,STARLINK-5212,PAYLOAD,2023-02-24 15:07:58,15.08851861,0.0001191,53.2151,277.8912,102.4861,257.6265,0.00078871,0.00012291,0.0,0 STARLINK-5212,1 54075U 22136AA  23055.63053572  .00012291  00000-0  78871-3 0  9990,2 54075  53.2151 277.8912 0001191 102.4861 257.6265 15.08851861 19961,6917.844,95.437,540.533,538.885,0.0
54075.0,STARLINK-5212,PAYLOAD,2023-02-24 19:54:07,15.08859203,0.0001172,53.2151,276.999,101.8277,258.2846,0.00088068,0.00013763,0.0,0 STARLINK-5212,1 54075U 22136AA  23055.82925300  .00013763  00000-0  88068-3 0  9992,2 54075  53.2151 276.9990 0001172 101.8277 258.2846 15.08859203 19511,6917.822,95.436,540.497,538.876,0.0
54075.0,STARLINK-5212,PAYLOAD,2023-02-24 21:29:30,15.0887777,0.000109,53.2152,276.7016,96.5158,263.5958,0.0014846,0.00023443,0.0,0 STARLINK-5212,1 54075U 22136AA  23055.89548752  .00023443  00000-0  14846-2 0  9999,2 54075  53.2152 276.7016 0001090  96.5158 263.5958 15.08877770 20004,6917.765,95.435,540.384,538.876,0.0
54075.0,STARLINK-5212,PAYLOAD,2023-02-25 07:01:48,15.08888346,8.3e-05,53.2154,274.9176,88.9949,271.1138,0.0011009,0.00017299,0.0,0 STARLINK-5212,1 54075U 22136AA  23056.29292078  .00017299  00000-0  11009-2 0  9991,2 54075  53.2154 274.9176 0000830  88.9949 271.1138 15.08888346 20069,6917.733,95.434,540.172,539.023,0.0
54075.0,STARLINK-5212,PAYLOAD,2023-02-25 18:09:30,15.08835189,0.0001221,53.2152,272.8355,101.5458,258.5671,-0.00060212,-9.856e-05,0.0,0 STARLINK-5212,1 54075U 22136AA  23056.75660497 -.00009856  00000-0 -60212-3 0  9999,2 54075  53.2152 272.8355 0001221 101.5458 258.5671 15.08835189 20131,6917.895,95.438,540.605,538.915,0.0
54075.0,STARLINK-5212,PAYLOAD,2023-02-25 21:20:16,15.0883575,0.0001133,53.2153,272.2409,99.1806,260.9314,-0.000333,-5.583e-05,0.0,0 STARLINK-5212,1 54075U 22136AA  23056.88908552 -.00005583  00000-0 -33300-3 0  9991,2 54075  53.2153 272.2409 0001133  99.1806 260.9314 15.08835750 19679,6917.893,95.438,540.542,538.975,0.0
54075.0,STARLINK-5212,PAYLOAD,2023-02-26 00:31:03,15.08834672,0.0001236,53.2157,271.6457,103.4971,256.6159,-4.5319e-05,-1.009e-05,0.0,0 STARLINK-5212,1 54075U 22136AA  23057.02156699 -.00001009  00000-0 -45319-4 0  9998,2 54075  53.2157 271.6457 0001236 103.4971 256.6159 15.08834672 19698,6917.897,95.438,540.617,538.907,0.0
54075.0,STARLINK-5212,PAYLOAD,2023-02-26 21:11:05,15.08825772,0.0001222,53.2158,267.7795,95.0328,265.0803,-5.469e-05,-1.158e-05,0.0,0 STARLINK-5212,1 54075U 22136AA  23057.88270005 -.00001158  00000-0 -54690-4 0  9997,2 54075  53.2158 267.7795 0001222  95.0328 265.0803 15.08825772 20308,6917.924,95.438,540.634,538.944,0.0
54075.0,STARLINK-5212,PAYLOAD,2023-02-27 00:21:51,15.08830374,0.0001303,53.2157,267.185,96.9731,263.1409,-2.9059e-05,-7.5e-06,0.0,0 STARLINK-5212,1 54075U 22136AA  23058.01518047 -.00000750  00000-0 -29059-4 0  9992,2 54075  53.2157 267.1850 0001303  96.9731 263.1409 15.08830374 19843,6917.91,95.438,540.676,538.873,0.0
54075.0,STARLINK-5212,PAYLOAD,2023-02-28 12:55:43,15.08840238,0.000132,53.2145,260.346,92.3966,267.7177,6.3404e-05,7.21e-06,0.0,0 STARLINK-5212,1 54075U 22136AA  23059.53869598  .00000721  00000-0  63404-4 0  9998,2 54075  53.2145 260.3460 0001320  92.3966 267.7177 15.08840238 20070,6917.88,95.438,540.658,538.832,0.0
54075.0,STARLINK-5212,PAYLOAD,2023-02-28 14:31:06,15.08838787,0.0001276,53.2145,260.0488,89.8948,270.2191,0.00027619,4.11e-05,0.0,0 STARLINK-5212,1 54075U 22136AA  23059.60493634  .00004110  00000-0  27619-3 0  9993,2 54075  53.2145 260.0488 0001276  89.8948 270.2191 15.08838787 20563,6917.884,95.438,540.632,538.866,0.0
54075.0,STARLINK-5212,PAYLOAD,2023-02-28 20:52:39,15.0883399,0.0001327,53.2146,258.86,80.5609,279.5533,0.00080532,0.0001255,0.0,0 STARLINK-5212,1 54075U 22136AA  23059.86989829  .00012550  00000-0  80532-3 0  9997,2 54075  53.2146 258.8600 0001327  80.5609 279.5533 15.08833990 20129,6917.899,95.438,540.682,538.846,0.0
54075.0,STARLINK-5212,PAYLOAD,2023-03-01 19:08:03,15.08851675,0.0001343,53.2144,254.6967,79.285,280.8293,0.00077519,0.00012075,0.0,0 STARLINK-5212,1 54075U 22136AA  23060.79725739  .00012075  00000-0  77519-3 0  9992,2 54075  53.2144 254.6967 0001343  79.2850 280.8293 15.08851675 20744,6917.845,95.437,540.639,538.781,0.0
54075.0,STARLINK-5212,PAYLOAD,2023-03-02 18:58:51,15.08821229,0.0001196,53.2144,250.2361,75.8388,284.2737,0.00036447,5.514e-05,0.0,0 STARLINK-5212,1 54075U 22136AA  23061.79087458  .00005514  00000-0  36447-3 0  9997,2 54075  53.2144 250.2361 0001196  75.8388 284.2737 15.08821229 20415,6917.938,95.439,540.63,538.975,0.0
54075.0,STARLINK-5212,PAYLOAD,2023-03-03 07:41:56,15.08851773,0.0001336,53.2147,247.8558,86.0103,274.1042,0.0013297,0.00020944,0.0,0 STARLINK-5212,1 54075U 22136AA  23062.32079158  .00020944  00000-0  13297-2 0  9996,2 54075  53.2147 247.8558 0001336  86.0103 274.1042 15.08851773 20978,6917.844,95.437,540.634,538.785,0.0
54075.0,STARLINK-5212,PAYLOAD,2023-03-03 18:49:37,15.08878887,0.0001386,53.2145,245.7746,85.5368,274.5782,0.0013874,0.00021885,0.0,0 STARLINK-5212,1 54075U 22136AA  23062.78445926  .00021885  00000-0  13874-2 0  9992,2 54075  53.2145 245.7746 0001386  85.5368 274.5782 15.08878887 21043,6917.762,95.435,540.585,538.668,0.0
54075.0,STARLINK-5212,PAYLOAD,2023-03-04 18:40:23,15.08862284,0.0001275,53.2135,241.3136,93.1905,266.9233,0.00050814,7.813e-05,0.0,0 STARLINK-5212,1 54075U 22136AA  23063.77805197  .00007813  00000-0  50814-3 0  9993,2 54075  53.2135 241.3136 0001275  93.1905 266.9233 15.08862284 21192,6917.812,95.436,540.559,538.795,0.0
